start=new Date('2022-07-06T00:00:00.000Z').valueOf();
sats=[{"MEAN_MOTION":"15.06401719","CLASSIFICATION_TYPE":"U","MEAN_MOTION_DDOT":"0.0000000000000","REF_FRAME":"TEME","ARG_OF_PERICENTER":"58.0409","LAUNCH_DATE":"2020-10-18","APOAPSIS":"549.098","OBJECT_NAME":"STARLINK-1784","SITE":"AFETR","COUNTRY_CODE":"US","MEAN_ANOMALY":"302.0845","OBJECT_ID":"2020-073T","ECCENTRICITY":"0.00027290","OBJECT_TYPE":"PAYLOAD","RCS_SIZE":"LARGE","EPHEMERIS_TYPE":"0","PERIAPSIS":"545.318","SEMIMAJOR_AXIS":"6925.343","BSTAR":"-0.00000890160000","EPOCH":"2022-07-05T06:24:41.301216","MEAN_MOTION_DOT":"-0.00000415","FILE":"3508171","NORAD_CAT_ID":"46687","MEAN_ELEMENT_THEORY":"SGP4","RA_OF_ASC_NODE":"132.4844","CENTER_NAME":"EARTH","PERIOD":"95.592","DECAY_DATE":null,"TLE_LINE2":"2 46687  53.0557 132.4844 0002729  58.0409 302.0845 15.06401719 94920","INCLINATION":"53.0557","REV_AT_EPOCH":"9492","ELEMENT_SET_NO":"999","TLE_LINE1":"1 46687U 20073T   22186.26714469 -.00000415  00000-0 -89016-5 0  9992","TIME_SYSTEM":"UTC","GP_ID":"207476290"},{"MEAN_MOTION_DOT":"0.00001064","EPOCH":"2022-07-05T10:10:56.819136","BSTAR":"0.00009033300000","SEMIMAJOR_AXIS":"6925.359","NORAD_CAT_ID":"46689","FILE":"3508171","MEAN_ELEMENT_THEORY":"SGP4","RA_OF_ASC_NODE":"166.7738","CENTER_NAME":"EARTH","TLE_LINE2":"2 46689  53.0533 166.7738 0002108  59.3148 300.8049 15.06396687 95709","DECAY_DATE":null,"PERIOD":"95.592","ELEMENT_SET_NO":"999","REV_AT_EPOCH":"9570","INCLINATION":"53.0533","TLE_LINE1":"1 46689U 20073V   22186.42426874  .00001064  00000-0  90333-4 0  9994","TIME_SYSTEM":"UTC","GP_ID":"207477042","MEAN_MOTION_DDOT":"0.0000000000000","CLASSIFICATION_TYPE":"U","MEAN_MOTION":"15.06396687","ARG_OF_PERICENTER":"59.3148","REF_FRAME":"TEME","LAUNCH_DATE":"2020-10-18","COUNTRY_CODE":"US","SITE":"AFETR","APOAPSIS":"548.684","OBJECT_NAME":"STARLINK-1788","OBJECT_ID":"2020-073V","ECCENTRICITY":"0.00021080","MEAN_ANOMALY":"300.8049","RCS_SIZE":"LARGE","OBJECT_TYPE":"PAYLOAD","PERIAPSIS":"545.764","EPHEMERIS_TYPE":"0"},{"REF_FRAME":"TEME","ARG_OF_PERICENTER":"67.6247","MEAN_MOTION":"15.06397643","MEAN_MOTION_DDOT":"0.0000000000000","CLASSIFICATION_TYPE":"U","SITE":"AFETR","APOAPSIS":"548.621","OBJECT_NAME":"STARLINK-1789","COUNTRY_CODE":"US","LAUNCH_DATE":"2020-10-18","OBJECT_TYPE":"PAYLOAD","RCS_SIZE":"LARGE","MEAN_ANOMALY":"292.4956","ECCENTRICITY":"0.00020220","OBJECT_ID":"2020-073W","PERIAPSIS":"545.820","EPHEMERIS_TYPE":"0","SEMIMAJOR_AXIS":"6925.356","MEAN_MOTION_DOT":"-0.00001421","BSTAR":"-0.00007649900000","EPOCH":"2022-07-05T19:44:50.714016","MEAN_ELEMENT_THEORY":"SGP4","RA_OF_ASC_NODE":"139.9826","CENTER_NAME":"EARTH","FILE":"3508222","NORAD_CAT_ID":"46690","INCLINATION":"53.0553","ELEMENT_SET_NO":"999","REV_AT_EPOCH":"9534","TLE_LINE2":"2 46690  53.0553 139.9826 0002022  67.6247 292.4956 15.06397643 95346","DECAY_DATE":null,"PERIOD":"95.592","GP_ID":"207481481","TIME_SYSTEM":"UTC","TLE_LINE1":"1 46690U 20073W   22186.82280919 -.00001421  00000-0 -76499-4 0  9994"},{"OBJECT_TYPE":"PAYLOAD","RCS_SIZE":"LARGE","MEAN_ANOMALY":"296.4675","ECCENTRICITY":"0.00020320","OBJECT_ID":"2020-073X","PERIAPSIS":"545.812","EPHEMERIS_TYPE":"0","REF_FRAME":"TEME","ARG_OF_PERICENTER":"63.6522","MEAN_MOTION":"15.06398160","MEAN_MOTION_DDOT":"0.0000000000000","CLASSIFICATION_TYPE":"U","SITE":"AFETR","APOAPSIS":"548.626","OBJECT_NAME":"STARLINK-1790","COUNTRY_CODE":"US","LAUNCH_DATE":"2020-10-18","INCLINATION":"53.0535","ELEMENT_SET_NO":"999","REV_AT_EPOCH":"9466","TLE_LINE2":"2 46691  53.0535 151.7782 0002032  63.6522 296.4675 15.06398160 94664","DECAY_DATE":null,"PERIOD":"95.592","GP_ID":"207476041","TLE_LINE1":"1 46691U 20073X   22186.42382025 -.00000383  00000-0 -68139-5 0  9991","TIME_SYSTEM":"UTC","SEMIMAJOR_AXIS":"6925.354","MEAN_MOTION_DOT":"-0.00000383","EPOCH":"2022-07-05T10:10:18.069600","BSTAR":"-0.00000681390000","RA_OF_ASC_NODE":"151.7782","MEAN_ELEMENT_THEORY":"SGP4","CENTER_NAME":"EARTH","FILE":"3508171","NORAD_CAT_ID":"46691"},{"INCLINATION":"53.0539","REV_AT_EPOCH":"9444","ELEMENT_SET_NO":"999","PERIOD":"95.592","TLE_LINE2":"2 46692  53.0539 167.1257 0001870  63.8320 296.2861 15.06399236 94440","DECAY_DATE":null,"GP_ID":"207475790","TIME_SYSTEM":"UTC","TLE_LINE1":"1 46692U 20073Y   22186.34317505 -.00000825  00000-0 -36500-4 0  9991","SEMIMAJOR_AXIS":"6925.351","BSTAR":"-0.00003650000000","EPOCH":"2022-07-05T08:14:10.324320","MEAN_MOTION_DOT":"-0.00000825","RA_OF_ASC_NODE":"167.1257","MEAN_ELEMENT_THEORY":"SGP4","CENTER_NAME":"EARTH","FILE":"3508171","NORAD_CAT_ID":"46692","OBJECT_TYPE":"PAYLOAD","RCS_SIZE":"LARGE","MEAN_ANOMALY":"296.2861","OBJECT_ID":"2020-073Y","ECCENTRICITY":"0.00018700","EPHEMERIS_TYPE":"0","PERIAPSIS":"545.921","ARG_OF_PERICENTER":"63.8320","REF_FRAME":"TEME","MEAN_MOTION":"15.06399236","CLASSIFICATION_TYPE":"U","MEAN_MOTION_DDOT":"0.0000000000000","APOAPSIS":"548.511","OBJECT_NAME":"STARLINK-1791","SITE":"AFETR","COUNTRY_CODE":"US","LAUNCH_DATE":"2020-10-18"},{"LAUNCH_DATE":"2020-10-18","COUNTRY_CODE":"US","APOAPSIS":"548.882","OBJECT_NAME":"STARLINK-1792","SITE":"AFETR","CLASSIFICATION_TYPE":"U","MEAN_MOTION_DDOT":"0.0000000000000","MEAN_MOTION":"15.06385973","ARG_OF_PERICENTER":"60.8507","REF_FRAME":"TEME","EPHEMERIS_TYPE":"0","PERIAPSIS":"545.631","ECCENTRICITY":"0.00023470","OBJECT_ID":"2020-073Z","MEAN_ANOMALY":"299.2717","RCS_SIZE":"LARGE","OBJECT_TYPE":"PAYLOAD","NORAD_CAT_ID":"46693","FILE":"3508171","CENTER_NAME":"EARTH","RA_OF_ASC_NODE":"152.6605","MEAN_ELEMENT_THEORY":"SGP4","BSTAR":"-0.00005679200000","EPOCH":"2022-07-05T05:28:59.739744","MEAN_MOTION_DOT":"-0.00001127","SEMIMAJOR_AXIS":"6925.392","TLE_LINE1":"1 46693U 20073Z   22186.22846921 -.00001127  00000-0 -56792-4 0  9999","TIME_SYSTEM":"UTC","GP_ID":"207476542","PERIOD":"95.593","TLE_LINE2":"2 46693  53.0548 152.6605 0002347  60.8507 299.2717 15.06385973 94638","DECAY_DATE":null,"REV_AT_EPOCH":"9463","ELEMENT_SET_NO":"999","INCLINATION":"53.0548"},{"GP_ID":"207477288","TLE_LINE1":"1 46694U 20073AA  22186.18605764  .00000019  00000-0  20159-4 0  9998","TIME_SYSTEM":"UTC","REV_AT_EPOCH":"9491","ELEMENT_SET_NO":"999","INCLINATION":"53.0552","PERIOD":"95.592","TLE_LINE2":"2 46694  53.0552 132.8549 0001553  96.9976 263.1190 15.06403214 94914","DECAY_DATE":null,"CENTER_NAME":"EARTH","RA_OF_ASC_NODE":"132.8549","MEAN_ELEMENT_THEORY":"SGP4","NORAD_CAT_ID":"46694","FILE":"3508171","BSTAR":"0.00002015900000","EPOCH":"2022-07-05T04:27:55.380096","MEAN_MOTION_DOT":"0.00000019","SEMIMAJOR_AXIS":"6925.339","EPHEMERIS_TYPE":"0","PERIAPSIS":"546.128","RCS_SIZE":"LARGE","OBJECT_TYPE":"PAYLOAD","OBJECT_ID":"2020-073AA","ECCENTRICITY":"0.00015530","MEAN_ANOMALY":"263.1190","COUNTRY_CODE":"US","APOAPSIS":"548.279","OBJECT_NAME":"STARLINK-1793","SITE":"AFETR","LAUNCH_DATE":"2020-10-18","ARG_OF_PERICENTER":"96.9976","REF_FRAME":"TEME","CLASSIFICATION_TYPE":"U","MEAN_MOTION_DDOT":"0.0000000000000","MEAN_MOTION":"15.06403214"},{"EPHEMERIS_TYPE":"0","PERIAPSIS":"545.565","MEAN_ANOMALY":"298.8039","OBJECT_ID":"2020-073AC","ECCENTRICITY":"0.00023450","OBJECT_TYPE":"PAYLOAD","RCS_SIZE":"LARGE","LAUNCH_DATE":"2020-10-18","APOAPSIS":"548.813","OBJECT_NAME":"STARLINK-1795","SITE":"AFETR","COUNTRY_CODE":"US","MEAN_MOTION":"15.06407981","CLASSIFICATION_TYPE":"U","MEAN_MOTION_DDOT":"0.0000000000000","ARG_OF_PERICENTER":"61.3185","REF_FRAME":"TEME","TIME_SYSTEM":"UTC","TLE_LINE1":"1 46696U 20073AC  22186.53621822 -.00001212  00000-0 -62466-4 0  9997","GP_ID":"207452233","PERIOD":"95.592","DECAY_DATE":null,"TLE_LINE2":"2 46696  53.0563 131.2778 0002345  61.3185 298.8039 15.06407981 95444","INCLINATION":"53.0563","REV_AT_EPOCH":"9544","ELEMENT_SET_NO":"999","FILE":"3508073","NORAD_CAT_ID":"46696","CENTER_NAME":"EARTH","RA_OF_ASC_NODE":"131.2778","MEAN_ELEMENT_THEORY":"SGP4","SEMIMAJOR_AXIS":"6925.324","BSTAR":"-0.00006246600000","EPOCH":"2022-07-05T12:52:09.254208","MEAN_MOTION_DOT":"-0.00001212"},{"ARG_OF_PERICENTER":"71.5659","REF_FRAME":"TEME","MEAN_MOTION":"15.06395536","CLASSIFICATION_TYPE":"U","MEAN_MOTION_DDOT":"0.0000000000000","OBJECT_NAME":"STARLINK-1797","APOAPSIS":"548.294","SITE":"AFETR","COUNTRY_CODE":"US","LAUNCH_DATE":"2020-10-18","OBJECT_TYPE":"PAYLOAD","RCS_SIZE":"LARGE","MEAN_ANOMALY":"288.5497","ECCENTRICITY":"0.00015410","OBJECT_ID":"2020-073AE","EPHEMERIS_TYPE":"0","PERIAPSIS":"546.160","SEMIMAJOR_AXIS":"6925.362","EPOCH":"2022-07-05T07:50:55.316832","BSTAR":"0.00000653000000","MEAN_MOTION_DOT":"-0.00000184","RA_OF_ASC_NODE":"152.1947","CENTER_NAME":"EARTH","MEAN_ELEMENT_THEORY":"SGP4","FILE":"3508171","NORAD_CAT_ID":"46698","INCLINATION":"53.0542","REV_AT_EPOCH":"9465","ELEMENT_SET_NO":"999","PERIOD":"95.592","TLE_LINE2":"2 46698  53.0542 152.1947 0001541  71.5659 288.5497 15.06395536 94657","DECAY_DATE":null,"GP_ID":"207476291","TIME_SYSTEM":"UTC","TLE_LINE1":"1 46698U 20073AE  22186.32702913 -.00000184  00000-0  65300-5 0  9994"},{"REF_FRAME":"TEME","ARG_OF_PERICENTER":"65.8443","MEAN_MOTION_DDOT":"0.0000000000000","CLASSIFICATION_TYPE":"U","MEAN_MOTION":"15.06393996","COUNTRY_CODE":"US","SITE":"AFETR","OBJECT_NAME":"STARLINK-1799","APOAPSIS":"548.596","LAUNCH_DATE":"2020-10-18","RCS_SIZE":"LARGE","OBJECT_TYPE":"PAYLOAD","OBJECT_ID":"2020-073AF","ECCENTRICITY":"0.00019700","MEAN_ANOMALY":"294.2752","PERIAPSIS":"545.868","EPHEMERIS_TYPE":"0","MEAN_MOTION_DOT":"-0.00000052","BSTAR":"0.00001539100000","EPOCH":"2022-07-05T07:57:36.167040","SEMIMAJOR_AXIS":"6925.367","MEAN_ELEMENT_THEORY":"SGP4","RA_OF_ASC_NODE":"152.1944","CENTER_NAME":"EARTH","NORAD_CAT_ID":"46699","FILE":"3508171","ELEMENT_SET_NO":"999","REV_AT_EPOCH":"9465","INCLINATION":"53.0539","DECAY_DATE":null,"TLE_LINE2":"2 46699  53.0539 152.1944 0001970  65.8443 294.2752 15.06393996 94650","PERIOD":"95.593","GP_ID":"207477043","TLE_LINE1":"1 46699U 20073AF  22186.33166860 -.00000052  00000-0  15391-4 0  9999","TIME_SYSTEM":"UTC"}];
